NORAD_CAT_ID,OBJECT_NAME,OBJECT_TYPE,EPOCH,MEAN_MOTION,ECCENTRICITY,INCLINATION,RA_OF_ASC_NODE,ARG_OF_PERICENTER,MEAN_ANOMALY,BSTAR,MEAN_MOTION_DOT,MEAN_MOTION_DDOT,TLE_LINE0,TLE_LINE1,TLE_LINE2,SEMIMAJOR_AXIS,PERIOD,APOGEE,PERIGEE,DECAYED
52302.0,STARLINK-3564,PAYLOAD,2023-12-06 13:18:54,15.08838603,0.000114,53.2148,188.8069,96.6148,263.4974,-3.7603e-05,-8.86e-06,0.0,0 STARLINK-3564,1 52302U 22041AT  23340.55480133 -.00000886  00000-0 -37603-4 0  9999,2 52302  53.2148 188.8069 0001140  96.6148 263.4974 15.08838603 90227,6917.885,95.438,540.538,538.961,0.0
52302.0,STARLINK-3564,PAYLOAD,2023-12-06 18:05:04,15.0886279,0.0001104,53.2145,187.9143,97.4672,262.6446,-0.0004909,-8.097e-05,0.0,0 STARLINK-3564,1 52302U 22041AT  23340.75352340 -.00008097  00000-0 -49090-3 0  9993,2 52302  53.2145 187.9143 0001104  97.4672 262.6446 15.08862790 91464,6917.811,95.436,540.439,538.912,0.0
52302.0,STARLINK-3564,PAYLOAD,2023-12-06 21:15:51,15.08861738,0.0001068,53.2154,187.3196,101.5244,258.5868,-0.00020189,-3.501e-05,0.0,0 STARLINK-3564,1 52302U 22041AT  23340.88601254 -.00003501  00000-0 -20189-3 0  9991,2 52302  53.2154 187.3196 0001068 101.5244 258.5868 15.08861738 90278,6917.814,95.436,540.418,538.94,0.0
52302.0,STARLINK-3564,PAYLOAD,2023-12-07 02:02:00,15.08844273,0.0001177,53.2152,186.4271,105.0222,255.09,9.4692e-06,-1.37e-06,0.0,0 STARLINK-3564,1 52302U 22041AT  23341.08472389 -.00000137  00000-0  94692-5 0  9992,2 52302  53.2152 186.4271 0001177 105.0222 255.0900 15.08844273 91518,6917.867,95.437,540.547,538.918,0.0
52302.0,STARLINK-3564,PAYLOAD,2023-12-07 13:09:42,15.0883855,0.0001255,53.2152,184.3452,97.539,262.5745,2.8089e-05,1.59e-06,0.0,0 STARLINK-3564,1 52302U 22041AT  23341.54840399  .00000159  00000-0  28089-4 0  9992,2 52302  53.2152 184.3452 0001255  97.5390 262.5745 15.08838550 90378,6917.885,95.438,540.618,538.882,0.0
52302.0,STARLINK-3564,PAYLOAD,2023-12-08 05:03:33,15.08841224,0.0001254,53.2153,181.3715,96.4111,263.7024,1.7043e-05,-1.7e-07,0.0,0 STARLINK-3564,1 52302U 22041AT  23342.21080093 -.00000017  00000-0  17043-4 0  9996,2 52302  53.2153 181.3715 0001254  96.4111 263.7024 15.08841224 91686,6917.877,95.437,540.609,538.874,0.0
52302.0,STARLINK-3564,PAYLOAD,2023-12-08 14:35:52,15.0883894,0.0001254,53.2153,179.5873,96.1618,263.9517,6.0573e-05,6.76e-06,0.0,0 STARLINK-3564,1 52302U 22041AT  23342.60824085  .00000676  00000-0  60573-4 0  9992,2 52302  53.2153 179.5873 0001254  96.1618 263.9517 15.08838940 90532,6917.884,95.438,540.616,538.881,0.0
52302.0,STARLINK-3564,PAYLOAD,2023-12-08 20:57:24,15.08839365,0.0001256,53.2153,178.3979,95.3202,264.7933,9.0078e-05,1.146e-05,0.0,0 STARLINK-3564,1 52302U 22041AT  23342.87319998  .00001146  00000-0  90078-4 0  9999,2 52302  53.2153 178.3979 0001256  95.3202 264.7933 15.08839365 90575,6917.882,95.438,540.616,538.878,0.0
52302.0,STARLINK-3564,PAYLOAD,2023-12-09 12:51:15,15.08840791,0.000125,53.2154,175.424,94.1846,265.9289,4.8486e-05,4.84e-06,0.0,0 STARLINK-3564,1 52302U 22041AT  23343.53559980  .00000484  00000-0  48486-4 0  9990,2 52302  53.2154 175.4240 0001250  94.1846 265.9289 15.08840791 90673,6917.878,95.438,540.608,538.878,0.0
52302.0,STARLINK-3564,PAYLOAD,2023-12-09 16:02:02,15.08841086,0.0001252,53.2154,174.8293,94.7128,265.4007,6.5046e-05,7.48e-06,0.0,0 STARLINK-3564,1 52302U 22041AT  23343.66807897  .00000748  00000-0  65046-4 0  9991,2 52302  53.2154 174.8293 0001252  94.7128 265.4007 15.08841086 91903,6917.877,95.437,540.608,538.876,0.0
52302.0,STARLINK-3564,PAYLOAD,2023-12-09 22:23:34,15.08843077,0.0001254,53.2154,173.6398,93.9753,266.1383,6.1029e-05,6.84e-06,0.0,0 STARLINK-3564,1 52302U 22041AT  23343.93303715  .00000684  00000-0  61029-4 0  9997,2 52302  53.2154 173.6398 0001254  93.9753 266.1383 15.08843077 90730,6917.871,95.437,540.603,538.868,0.0
52302.0,STARLINK-3564,PAYLOAD,2023-12-10 12:42:02,15.08839364,0.0001279,53.2153,170.9635,91.4379,268.676,1.1579e-05,-1.04e-06,0.0,0 STARLINK-3564,1 52302U 22041AT  23344.52920077 -.00000104  00000-0  11579-4 0  9992,2 52302  53.2153 170.9635 0001279  91.4379 268.6760 15.08839364 90827,6917.882,95.438,540.632,538.863,0.0
52302.0,STARLINK-3564,PAYLOAD,2023-12-10 19:03:35,15.08840471,0.0001285,53.2153,169.774,90.8576,269.2563,1.9544e-05,2.3e-07,0.0,0 STARLINK-3564,1 52302U 22041AT  23344.79415977  .00000023  00000-0  19544-4 0  9998,2 52302  53.2153 169.7740 0001285  90.8576 269.2563 15.08840471 92077,6917.879,95.438,540.633,538.855,0.0
52302.0,STARLINK-3564,PAYLOAD,2023-12-11 18:54:22,15.08843783,0.0001382,53.2155,165.3121,105.0446,255.0699,4.0308e-05,3.54e-06,0.0,0 STARLINK-3564,1 52302U 22041AT  23345.78775524  .00000354  00000-0  40308-4 0  9994,2 52302  53.2155 165.3121 0001382 105.0446 255.0699 15.08843783 91012,6917.869,95.437,540.69,538.778,0.0
52302.0,STARLINK-3564,PAYLOAD,2023-12-12 18:45:09,15.08836265,0.0001387,53.2158,160.8517,104.8605,255.254,1.1403e-05,-1.06e-06,0.0,0 STARLINK-3564,1 52302U 22041AT  23346.78136145 -.00000106  00000-0  11403-4 0  9995,2 52302  53.2158 160.8517 0001387 104.8605 255.2540 15.08836265 92377,6917.892,95.438,540.716,538.797,0.0
52302.0,STARLINK-3564,PAYLOAD,2023-12-13 18:35:56,15.08841872,0.0001216,53.2155,156.3892,94.432,265.6811,3.4814e-06,-2.32e-06,0.0,0 STARLINK-3564,1 52302U 22041AT  23347.77495899 -.00000232  00000-0  34814-5 0  9991,2 52302  53.2155 156.3892 0001216  94.4320 265.6811 15.08841872 91318,6917.875,95.437,540.581,538.898,0.0
52302.0,STARLINK-3564,PAYLOAD,2023-12-14 18:26:43,15.0883298,0.0001248,53.2157,151.9288,87.9368,272.1767,7.7805e-05,9.5e-06,0.0,0 STARLINK-3564,1 52302U 22041AT  23348.76856465  .00000950  00000-0  77805-4 0  9993,2 52302  53.2157 151.9288 0001248  87.9368 272.1767 15.08832980 92677,6917.902,95.438,540.63,538.903,0.0
52302.0,STARLINK-3564,PAYLOAD,2023-12-15 10:20:35,15.08832664,0.0001329,53.2166,148.954,78.4297,281.6844,2.4349e-06,-2.49e-06,0.0,0 STARLINK-3564,1 52302U 22041AT  23349.43096989 -.00000249  00000-0  24349-5 0  9993,2 52302  53.2166 148.9540 0001329  78.4297 281.6844 15.08832664 91567,6917.903,95.438,540.687,538.848,0.0
52302.0,STARLINK-3564,PAYLOAD,2023-12-15 18:17:31,15.08835422,0.0001363,53.217,147.4695,79.8327,280.2819,2.5153e-05,1.12e-06,0.0,0 STARLINK-3564,1 52302U 22041AT  23349.76216902  .00000112  00000-0  25153-4 0  9999,2 52302  53.2170 147.4695 0001363  79.8327 280.2819 15.08835422 91612,6917.894,95.438,540.702,538.816,0.0
52302.0,STARLINK-3564,PAYLOAD,2023-12-16 18:08:17,15.08845842,0.0001453,53.2167,143.0131,73.5886,286.5266,0.00013793,1.908e-05,0.0,0 STARLINK-3564,1 52302U 22041AT  23350.75576087  .00001908  00000-0  13793-3 0  9993,2 52302  53.2167 143.0131 0001453  73.5886 286.5266 15.08845842 92978,6917.863,95.437,540.733,538.722,0.0
52302.0,STARLINK-3564,PAYLOAD,2023-12-17 16:23:42,15.08838707,0.0001685,53.2174,138.85,62.196,297.9203,7.1659e-05,8.53e-06,0.0,0 STARLINK-3564,1 52302U 22041AT  23351.68312832  .00000853  00000-0  71659-4 0  9996,2 52302  53.2174 138.8500 0001685  62.1960 297.9203 15.08838707 93118,6917.884,95.438,540.915,538.584,0.0
52302.0,STARLINK-3564,PAYLOAD,2023-12-18 14:39:05,15.08845813,0.0001441,53.2164,134.6897,81.9131,278.2025,3.403e-05,2.54e-06,0.0,0 STARLINK-3564,1 52302U 22041AT  23352.61048196  .00000254  00000-0  34030-4 0  9996,2 52302  53.2164 134.6897 0001441  81.9131 278.2025 15.08845813 92040,6917.863,95.437,540.724,538.731,0.0
52302.0,STARLINK-3564,PAYLOAD,2023-12-18 16:14:28,15.08850727,0.0001389,53.2167,134.3873,87.2752,272.8399,1.2902e-06,-2.67e-06,0.0,0 STARLINK-3564,1 52302U 22041AT  23352.67671912 -.00000267  00000-0  12902-5 0  9990,2 52302  53.2167 134.3873 0001389  87.2752 272.8399 15.08850727 93262,6917.848,95.437,540.673,538.752,0.0
52302.0,STARLINK-3564,PAYLOAD,2023-12-19 14:29:52,15.08839181,0.000137,53.2164,130.2228,89.3814,270.7336,3.0942e-05,2.05e-06,0.0,0 STARLINK-3564,1 52302U 22041AT  23353.60408379  .00000205  00000-0  30942-4 0  9993,2 52302  53.2164 130.2228 0001370  89.3814 270.7336 15.08839181 92190,6917.883,95.438,540.696,538.8,0.0
52302.0,STARLINK-3564,PAYLOAD,2023-12-19 16:05:15,15.08840645,0.0001374,53.2165,129.9251,89.4704,270.6446,4.0794e-05,3.61e-06,0.0,0 STARLINK-3564,1 52302U 22041AT  23353.67032248  .00000361  00000-0  40794-4 0  9997,2 52302  53.2165 129.9251 0001374  89.4704 270.6446 15.08840645 93419,6917.878,95.438,540.694,538.793,0.0
52302.0,STARLINK-3564,PAYLOAD,2023-12-20 14:20:40,15.08837622,0.0001344,53.2166,125.7608,100.3724,259.742,-4.3562e-05,-9.81e-06,0.0,0 STARLINK-3564,1 52302U 22041AT  23354.59768895 -.00000981  00000-0 -43562-4 0  9999,2 52302  53.2166 125.7608 0001344 100.3724 259.7420 15.08837622 92344,6917.888,95.438,540.682,538.823,0.0
52302.0,STARLINK-3564,PAYLOAD,2023-12-21 14:11:27,15.08840907,0.0001288,53.2165,121.302,90.1625,269.9515,6.3808e-05,7.28e-06,0.0,0 STARLINK-3564,1 52302U 22041AT  23355.59128844  .00000728  00000-0  63808-4 0  9996,2 52302  53.2165 121.3020 0001288  90.1625 269.9515 15.08840907 92490,6917.878,95.437,540.634,538.852,0.0
52302.0,STARLINK-3564,PAYLOAD,2023-12-22 12:26:51,15.08837768,0.0001279,53.2166,117.1386,90.4086,269.7053,5.5791e-05,6e-06,0.0,0 STARLINK-3564,1 52302U 22041AT  23356.51865437  .00000600  00000-0  55791-4 0  9996,2 52302  53.2166 117.1386 0001279  90.4086 269.7053 15.08837768 93849,6917.887,95.438,540.637,538.867,0.0
52302.0,STARLINK-3564,PAYLOAD,2023-12-22 14:02:14,15.08840349,0.0001296,53.2163,116.8438,99.8768,260.2371,5.3408e-05,5.62e-06,0.0,0 STARLINK-3564,1 52302U 22041AT  23356.58489354  .00000562  00000-0  53408-4 0  9993,2 52302  53.2163 116.8438 0001296  99.8768 260.2371 15.08840349 92644,6917.879,95.438,540.641,538.848,0.0
52302.0,STARLINK-3564,PAYLOAD,2023-12-22 15:37:37,15.08844067,0.000129,53.2165,116.5468,97.7144,262.3995,6.8821e-05,8.08e-06,0.0,0 STARLINK-3564,1 52302U 22041AT  23356.65113100  .00000808  00000-0  68821-4 0  9992,2 52302  53.2165 116.5468 0001290  97.7144 262.3995 15.08844067 92652,6917.868,95.437,540.625,538.841,0.0
